     2.100          NAVIGATION                              RINEX VERSION / TYPE
fic2rin                                 04/26/2014 00:21:16 PGM / RUN BY / DATE
                                                            END OF HEADER
16 14  4 25 14  0  0.0 -.221546273679D-03  .181898940355D-11  .000000000000D+00
     .460000000000D+02  .402500000000D+02  .373408411102D-08 -.222053957279D+01
     .207312405109D-05  .774281716440D-02  .106450170279D-04  .515357872963D+04
     .482400000000D+06 -.111758708954D-07 -.311266277270D+01 -.117346644402D-06
     .988217706686D+00  .190156250000D+03  .187722663197D+00 -.766674792225D-08
     .444661379074D-09  .100000000000D+01  .178900000000D+04  .000000000000D+00
     .240000000000D+01  .000000000000D+00 -.102445483208D-07  .460000000000D+02
     .475206000000D+06  .400000000000D+01
17 14  4 25 14  0  0.0 -.879447907209D-04 -.306954461848D-11  .000000000000D+00
     .320000000000D+02 -.110312500000D+02  .454161774804D-08  .310469527612D+01
    -.543892383575D-06  .929557892960D-02  .398233532906D-05  .515357657242D+04
     .482400000000D+06  .428408384323D-07 -.208064741264D+01 -.130385160446D-06
     .968132956201D+00  .304968750000D+03 -.210221400990D+01 -.813712465819D-08
     .942896418278D-10  .100000000000D+01  .178900000000D+04  .000000000000D+00
     .240000000000D+01  .000000000000D+00 -.102445483208D-07  .320000000000D+02
     .475206000000D+06  .400000000000D+01
18 14  4 25 14  0  0.0  .315400306135D-03  .227373675443D-11  .000000000000D+00
     .160000000000D+02  .866250000000D+02  .531057834976D-08 -.155883307136D+01
     .463612377644D-05  .151370858075D-01  .101812183857D-04  .515368972015D+04
     .482400000000D+06  .365078449249D-06 -.369951121035D-01  .141561031342D-06
     .926389406580D+00  .159968750000D+03 -.204604730224D+01 -.831927510263D-08
     .464662212189D-09  .100000000000D+01  .178900000000D+04  .000000000000D+00
     .240000000000D+01  .000000000000D+00 -.111758708954D-07  .160000000000D+02
     .475206000000D+06  .400000000000D+01
19 14  4 25 14  0  0.0 -.453138723969D-03 -.227373675443D-11  .000000000000D+00
     .151000000000D+03 -.962500000000D+01  .477341311753D-08  .233799186428D+01
    -.542029738426D-06  .102123853285D-01  .390037894249D-05  .515359940529D+04
     .482400000000D+06 -.158324837685D-06 -.202972134568D+01 -.223517417908D-07
     .965230699356D+00  .307906250000D+03  .417919461692D+00 -.836534845034D-08
     .564309220030D-10  .100000000000D+01  .178900000000D+04  .000000000000D+00
     .240000000000D+01  .000000000000D+00 -.149011611938D-07  .151000000000D+03
     .475206000000D+06  .400000000000D+01
20 14  4 25 14  0  0.0  .183130614460D-03  .375166564481D-11  .000000000000D+00
     .170000000000D+02  .647812500000D+02  .529772067133D-08 -.102917258986D+01
     .352784991264D-05  .580361206084D-02  .109616667032D-04  .515381362534D+04
     .482400000000D+06 -.391155481339D-07 -.900821972680D-01  .894069671631D-07
     .927356042867D+00  .155562500000D+03  .133547765461D+01 -.843320841984D-08
     .319656172105D-09  .100000000000D+01  .178900000000D+04  .000000000000D+00
     .240000000000D+01  .000000000000D+00 -.838190317154D-08  .170000000000D+02
     .475206000000D+06  .400000000000D+01
21 14  4 25 14  0  0.0 -.357401091605D-03 -.216004991671D-11  .000000000000D+00
     .104000000000D+03 -.567187500000D+02  .525986195151D-08 -.579318908009D+00
    -.271759927273D-05  .214416456874D-01  .104941427708D-04  .515376894760D+04
     .482400000000D+06 -.670552253723D-07 -.108218353160D+01  .312924385071D-06
     .932084060974D+00  .166968750000D+03 -.203483794408D+01 -.877822279107D-08
    -.240367155114D-09  .100000000000D+01  .178900000000D+04  .000000000000D+00
     .240000000000D+01  .000000000000D+00 -.111758708954D-07  .104000000000D+03
     .475206000000D+06  .400000000000D+01
22 14  4 25 14  0  0.0  .229491852224D-03  .272848410532D-11  .000000000000D+00
     .220000000000D+02  .755937500000D+02  .532236455499D-08 -.211247086795D+01
     .380724668503D-05  .710866833106D-02  .104140490294D-04  .515373185158D+04
     .482400000000D+06  .137835741043D-06 -.350510153983D-01  .167638063431D-07
     .924161636893D+00  .154750000000D+03 -.206380749345D+01 -.835713382245D-08
     .491806199988D-09  .100000000000D+01  .178900000000D+04  .000000000000D+00
     .240000000000D+01  .000000000000D+00 -.172294676304D-07  .220000000000D+02
     .475206000000D+06  .400000000000D+01
23 14  4 25 14  0  0.0 -.153044238687D-04 -.318323145621D-11  .000000000000D+00
     .850000000000D+02  .247187500000D+02  .534986570052D-08  .201560856180D+01
     .130943953991D-05  .917404785287D-02  .328756868839D-05  .515355872917D+04
     .482400000000D+06 -.186264514923D-06  .102819364750D+01  .165775418282D-06
     .952070289778D+00  .316125000000D+03 -.279206949679D+01 -.868500462245D-08
     .821462788651D-11  .100000000000D+01  .178900000000D+04  .000000000000D+00
     .240000000000D+01  .000000000000D+00 -.200234353542D-07  .850000000000D+02
     .475206000000D+06  .400000000000D+01
24 14  4 25 14  0  0.0 -.273422338068D-04 -.682121026330D-12  .000000000000D+00
     .160000000000D+02 -.625625000000D+02  .463555023213D-08  .120173597219D+01
    -.309944152832D-05  .206510606222D-02  .957585871220D-05  .515374075890D+04
     .482400000000D+06  .819563865662D-07  .205559529895D+01  .316649675369D-07
     .956843731491D+00  .190375000000D+03  .328072217845D+00 -.821284209784D-08
    -.520735976458D-09  .100000000000D+01  .178900000000D+04  .000000000000D+00
     .240000000000D+01  .000000000000D+00  .279396772385D-08  .160000000000D+02
     .475206000000D+06  .400000000000D+01
25 14  4 25 14  0  0.0  .226064585149D-04  .795807864051D-12  .000000000000D+00
     .370000000000D+02  .494375000000D+02  .405588322953D-08 -.838267346914D+00
     .244006514549D-05  .353017786983D-02  .105611979961D-04  .515362284279D+04
     .482400000000D+06  .143423676491D-06  .310995944931D+01  .707805156708D-07
     .976324211959D+00  .184093750000D+03  .650748670088D+00 -.791532970525D-08
     .290012080167D-09  .100000000000D+01  .178900000000D+04  .000000000000D+00
     .240000000000D+01  .000000000000D+00  .512227416039D-08  .370000000000D+02
     .475206000000D+06  .400000000000D+01
26 14  4 25 14  0  0.0  .980957411230D-04 -.114823706099D-10  .000000000000D+00
     .540000000000D+02 -.546875000000D+01  .466269421993D-08  .189719237260D+01
    -.802800059319D-06  .214547294891D-01  .370107591152D-05  .515368564606D+04
     .482400000000D+06 -.372529029846D-08  .111599576698D+01 -.502914190292D-06
     .975188215109D+00  .315312500000D+03  .127910773154D+01 -.814283918194D-08
    -.114647632677D-09  .100000000000D+01  .178900000000D+04  .000000000000D+00
     .240000000000D+01  .000000000000D+00 -.605359673500D-08  .540000000000D+02
     .475206000000D+06  .400000000000D+01
27 14  4 25 14  0  0.0 -.187940895557D-04  .113686837722D-11  .000000000000D+00
     .450000000000D+02  .415625000000D+01  .481448625696D-08 -.303689135942D+01
     .301748514175D-06  .113642984070D-02  .402331352234D-05  .515366664124D+04
     .482400000000D+06  .223517417908D-07 -.212599808083D+01  .279396772385D-07
     .962890346419D+00  .304000000000D+03  .774184293598D-01 -.844535178280D-08
     .175364447490D-09  .100000000000D+01  .178900000000D+04  .000000000000D+00
     .240000000000D+01  .000000000000D+00  .186264514923D-08  .450000000000D+02
     .475206000000D+06  .400000000000D+01
29 14  4 25 14  0  0.0  .528007280082D-03  .272848410532D-11  .000000000000D+00
     .480000000000D+02 -.163437500000D+02  .469198115413D-08 -.358647808424D+00
    -.813975930214D-06  .164707179647D-02  .426545739174D-05  .515371049881D+04
     .482400000000D+06 -.949949026108D-07 -.207161182201D+01 -.596046447754D-07
     .968853948062D+00  .302343750000D+03 -.915771677360D+00 -.833534720067D-08
     .132148361653D-10  .100000000000D+01  .178900000000D+04  .000000000000D+00
     .240000000000D+01  .000000000000D+00 -.977888703346D-08  .480000000000D+02
     .475206000000D+06  .400000000000D+01
31 14  4 25 14  0  0.0  .334247015417D-03  .000000000000D+00  .000000000000D+00
     .103000000000D+03 -.721250000000D+02  .409302763389D-08  .222629821083D+00
    -.386126339436D-05  .803459761664D-02  .997819006443D-05  .515354031754D+04
     .482400000000D+06  .521540641785D-07  .209573997274D+01 -.124797224998D-06
     .978432477331D+00  .198875000000D+03 -.639304013258D+00 -.804140638542D-08
    -.525379027002D-09  .100000000000D+01  .178900000000D+04  .000000000000D+00
     .240000000000D+01  .000000000000D+00 -.130385160446D-07  .103000000000D+03
     .475206000000D+06  .400000000000D+01
32 14  4 25 14  0  0.0 -.442213378847D-03  .784439180279D-11  .000000000000D+00
     .108000000000D+03  .682500000000D+02  .495056335369D-08  .950437317712D+00
     .363774597645D-05  .114021914778D-01  .998564064503D-05  .515375697517D+04
     .482400000000D+06  .184401869774D-06  .563671084192D-01  .109896063805D-06
     .948320987273D+00  .183250000000D+03 -.167100015289D+00 -.824070040111D-08
     .320727645308D-09  .100000000000D+01  .178900000000D+04  .000000000000D+00
     .240000000000D+01  .000000000000D+00 -.325962901115D-08  .108000000000D+03
     .475206000000D+06  .400000000000D+01
23 14  4 25 13 59 44.0 -.153044238687D-04 -.318323145621D-11  .000000000000D+00
     .220000000000D+02  .247187500000D+02  .535022285826D-08  .201327454037D+01
     .130943953991D-05  .917404936627D-02  .328756868839D-05  .515355873299D+04
     .482384000000D+06 -.186264514923D-06  .102819377477D+01  .165775418282D-06
     .952070283926D+00  .316125000000D+03 -.279206941048D+01 -.868500462245D-08
     .821462788651D-11  .100000000000D+01  .178900000000D+04  .000000000000D+00
     .240000000000D+01  .000000000000D+00 -.200234353542D-07  .220000000000D+02
     .481956000000D+06  .400000000000D+01
